{
    "links": {
        "self": "http://www.neowsapp.com/rest/v1/neo/3699443?api_key=iIulBulltgU6a56xZRHN4H3l9WmuAYTsLGpBGhQ2"
    },
    "id": "3699443",
    "neo_reference_id": "3699443",
    "name": "(2014 WQ362)",
    "designation": "2014 WQ362",
    "nasa_jpl_url": "http://ssd.jpl.nasa.gov/sbdb.cgi?sstr=3699443",
    "absolute_magnitude_h": 24.9,
    "estimated_diameter": {
        "kilometers": {
            "estimated_diameter_min": 0.0278326768,
            "estimated_diameter_max": 0.0622357573
        },
        "meters": {
            "estimated_diameter_min": 27.8326768072,
            "estimated_diameter_max": 62.2357573367
        },
        "miles": {
            "estimated_diameter_min": 0.0172944182,
            "estimated_diameter_max": 0.0386714948
        },
        "feet": {
            "estimated_diameter_min": 91.3145593761,
            "estimated_diameter_max": 204.1855621004
        }
    },
    "is_potentially_hazardous_asteroid": false,
    "close_approach_data": [
        {
            "close_approach_date": "2014-11-17",
            "close_approach_date_full": "2014-Nov-17 22:48",
            "epoch_date_close_approach": 1416264480000,
            "relative_velocity": {
                "kilometers_per_second": "10.4384058117",
                "kilometers_per_hour": "37578.2609219519",
                "miles_per_hour": "23349.6699600873"
            },
            "miss_distance": {
                "astronomical": "0.0797498646",
                "lunar": "31.0226973294",
                "kilometers": "11930409.876948402",
                "miles": "7413212.9422838676"
            },
            "orbiting_body": "Earth"
        }
    ],
    "orbital_data": {
        "orbit_id": "5",
        "orbit_determination_date": "2019-07-17 06:10:29",
        "first_observation_date": "2014-11-23",
        "last_observation_date": "2014-11-27",
        "data_arc_in_days": 4,
        "observations_used": 12,
        "orbit_uncertainty": "8",
        "minimum_orbit_intersection": ".0402835",
        "jupiter_tisserand_invariant": "4.137",
        "epoch_osculation": "2456987.5",
        "eccentricity": ".4248941249757384",
        "semi_major_axis": "1.668803951391277",
        "inclination": "6.409401873344446",
        "ascending_node_longitude": "65.51908474901205",
        "orbital_period": "787.4199357473834",
        "perihelion_distance": ".9597389567088258",
        "perihelion_argument": "307.9835152752403",
        "aphelion_distance": "2.377868946073729",
        "perihelion_time": "2456947.738386522390",
        "mean_anomaly": "18.17858578644345",
        "mean_motion": ".457189339076492",
        "equinox": "J2000",
        "orbit_class": {
            "orbit_class_type": "APO",
            "orbit_class_description": "Near-Earth asteroid orbits which cross the Earth’s orbit similar to that of 1862 Apollo",
            "orbit_class_range": "a (semi-major axis) > 1.0 AU; q (perihelion) < 1.017 AU"
        }
    },
    "is_sentry_object": false
}